[{"OBJECT_NAME":"STARLINK-1446","OBJECT_ID":"2020-035G","EPOCH":"2026-03-09T22:34:36.621696","MEAN_MOTION":15.42911141,"ECCENTRICITY":3.749e-5,"INCLINATION":53.0259,"RA_OF_ASC_NODE":358.185,"ARG_OF_PERICENTER":267.9178,"MEAN_ANOMALY":92.1784,"EPHEMERIS_TYPE":0,"CLASSIFICATION_TYPE":"U","NORAD_CAT_ID":45663,"ELEMENT_SET_NO":999,"REV_AT_EPOCH":31971,"BSTAR":0.00054126708,"MEAN_MOTION_DOT":0.00023817,"MEAN_MOTION_DDOT":0},{"OBJECT_NAME":"ICEYE-X35","OBJECT_ID":"2023-174AY","EPOCH":"2026-03-09T23:23:30.016608","MEAN_MOTION":15.44468851,"ECCENTRICITY":0.00107431,"INCLINATION":97.3849,"RA_OF_ASC_NODE":151.4029,"ARG_OF_PERICENTER":192.4001,"MEAN_ANOMALY":167.6984,"EPHEMERIS_TYPE":0,"CLASSIFICATION_TYPE":"U","NORAD_CAT_ID":58302,"ELEMENT_SET_NO":999,"REV_AT_EPOCH":12999,"BSTAR":0.00096661577,"MEAN_MOTION_DOT":0.00044959,"MEAN_MOTION_DDOT":0}]
